# Made by eph2tle, compiled Jun 28 2023 10:06:02
# Run at Thu Jul 13 11:46:07 2023
#
#    The following TLEs (Two-Line Elements) were generated by fitting
# a numerically-integrated ephemeris,  based on the orbit given below,
# to the SDP4/SGP4 models.  Each TLE is good for the interval between
# its epoch and the epoch of the subsequent TLE (usually one day).
# The maximum deviation between the numerically integrated ephemerides
# and the TLE-based ephemeris, in kilometers,  is given for each TLE
# as the "worst residual".
#
#    This fitting is done using the 'eph2tle' code packaged with Find_Orb.
# The code has details on how the TLEs were computed :
#
#    https://github.com/Bill-Gray/find_orb/eph2tle.cpp
#
#    Be warned:  the error given is that between the numerically
# integrated ephems and the TLE model.  There will usually be at
# least some additional difference between the ephems and the actual
# motion of the satellite,  especially if the ephemerides are based
# on a short arc.  If the following orbital elements say something
# like "[based on] 10 observations 2015 Jan. 1-13",  and the TLEs
# are for 2015 May,  the extrapolation may be tenuous at best.  If
# your application requires a specific level of accuracy,  you may
# want to contact me;  I can give you some idea as to the fit of the
# underlying data (and possibly TLEs based on newer data).
#
#   You can usually find the underlying observational data,  and the
# fitted orbit,  residuals,  ephemerides,  and sometimes some comments
# about the object,  among the pages listed at
#
#    https://www.projectpluto.com/pluto/mpecs/pseudo.htm
#
#    WARNING:  for this object,  "normal" TLEs cannot be fitted.  (This
# usually means an object with an hyperbolic or nearly-parabolic orbit.)
# For this and similar cases,   an alternative model is used,  in which
# most of the traditional TLE data is replaced by six signed 8-digit hex
# numbers.  These six numbers are a state vector,  numerically integrated
# using a simplified force model.  This is necessary for objects at L2 or
# L1,  and sometimes for objects in high orbits where the SDP4/SGP4 model
# fails.  Some documentation is in 'get_el.cpp' in the source code at
# https://www.github.com/Bill-Gray/sat_code ; look for 'hex' in that file,
# with the actual integration done in 'sdp4.cpp'.  But be aware:  it's my
# own extension,  doesn't work with other code,  and is therefore used
# only when necessary.
#
#    Also,  if you use a TLE outside the "correct" time range (between
# its MJD and that of the next TLE),  all bets are off.  I've carefully
# computed and minimized the worst error over the "correct" time frame,
# but the ephemeris may (or may not) diverge wildly outside of it.
#
# Ephem range: 59945.000000 60310.000000 1.000000
# Created Thu Jul 13 11:46:04 2023
# Ephemeris start:  1 Jan 2023  0:00:00
# Ephemeris end:    1 Jan 2024  0:00:00
# Times are all TDT
# Positions/velocities are in equatorial J2000
# Orbital elements:  2023 NM = C9E9G52 = unid temp capture
#    Perigee 2023 Jul 24.8309694 +/- 0.000506 TT = 19:56:35.75 (JD 2460150.3309694)
# Epoch 2023 Jul 10.0 TT; AMR 0.011639 +/- 0.000181 m^2/kg         Find_Orb
# M 284.2992883749 +/- 0.0021         (J2000 equator)
# n   5.1042322016 +/- 3.05e-5        Peri.   86.3658640 +/- 0.0009
# a721079.62488 +/- 2.87              Node   278.6622696 +/- 0.00010
# e   0.262298569 +/- 9.81e-6         Incl.   18.9624560 +/- 0.000054
# P  70.53d                  H 29.99  G  0.15   U  5.8
# q 531941.47081 +/- 9.15    Q 910217.77895 +/- 3.62
# 63 of 65 observations 2023 Apr. 10-July 10; mean residual 0".362
#
# 1 NoradU COSPAR   Epoch.epoch     dn/dt/2  d2n/dt2/6 BSTAR    T El# C
# 2 NoradU Inclina RAAscNode Eccent  ArgPeri MeanAno  MeanMotion Rev# C

# Worst residual: 1.38 km
# MJD 59945.000000 (2023 Jan  1  0:00)
2023 NM = C9E9G52 = unid temp capture
1 79961U 23999ZZL 22365.99919926 -01JS0PW5 +01FVB9G4 +00OC6OLVH 20208
2 79961                          +0002AWF3 -0005OW3Q -0003G23X     07

# Worst residual: 1.48 km
# MJD 59946.000000 (2023 Jan  2  0:00)
2023 NM = C9E9G52 = unid temp capture
1 79961U 23999ZZL 23001.99919926 -01J828IK +01EIRDUQ +00NIO6E9H 20205
2 79961                          +0002BF1K -0005JQ45 -0003DWD7     03

# Worst residual: 1.53 km
# MJD 59947.000000 (2023 Jan  3  0:00)
2023 NM = C9E9G52 = unid temp capture
1 79961U 23999ZZL 23002.99919926 -01INZH1J +01D7FHTB +00MPO1H2H 20204
2 79961                          +0002BW6H -0005EPFJ -0003BSZ9     01

# Worst residual: 1.56 km
# MJD 59948.000000 (2023 Jan  4  0:00)
2023 NM = C9E9G52 = unid temp capture
1 79961U 23999ZZL 23003.99919926 -01I3SPXT +01BXAEEX +00LX5QXZH 20202
2 79961                          +0002CCCQ -00059TDK -00039RLX     04

# Worst residual: 1.58 km
# MJD 59949.000000 (2023 Jan  5  0:00)
2023 NM = C9E9G52 = unid temp capture
1 79961U 23999ZZL 23004.99919926 -01HJI5UJ +01AOB2L9 +00L54UVSH 20200
2 79961                          +0002CRXD -0005519U -00037RWM     08

# Worst residual: 1.61 km
# MJD 59950.000000 (2023 Jan  6  0:00)
2023 NM = C9E9G52 = unid temp capture
1 79961U 23999ZZL 23005.99919926 -01GZ3WXE +019GGN2T +00KDL0EOH 20200
2 79961                          +0002D744 -00050CGI -00035TIN     06

# Worst residual: 1.66 km
# MJD 59951.000000 (2023 Jan  7  0:00)
2023 NM = C9E9G52 = unid temp capture
1 79961U 23999ZZL 23006.99919926 -01GEM23C +0189QE8S +00JMHXO2H 20209
2 79961                          +0002DLZO -0004VQAL -00033W3H     01

# Worst residual: 1.70 km
# MJD 59952.000000 (2023 Jan  8  0:00)
2023 NM = C9E9G52 = unid temp capture
1 79961U 23999ZZL 23007.99919926 -01FU0O6J +01743RSZ +00IVVFS7H 20205
2 79961                          +0002E0I1 -0004R66L -00031ZAY     09

# Worst residual: 1.74 km
# MJD 59953.000000 (2023 Jan  9  0:00)
2023 NM = C9E9G52 = unid temp capture
1 79961U 23999ZZL 23008.99919926 -01F9BV0T +015ZKCF5 +00I5PEP5H 20208
2 79961                          +0002EEH1 -0004MNKU -000302TP     08

# Worst residual: 1.78 km
# MJD 59954.000000 (2023 Jan 10  0:00)
2023 NM = C9E9G52 = unid temp capture
1 79961U 23999ZZL 23009.99919926 -01EOJSDT +014W3T7D +00HFZSZSH 20204
2 79961                          +0002ERMS -0004I5ZY -0002Y6D6     01

# Worst residual: 1.83 km
# MJD 59955.000000 (2023 Jan 11  0:00)
2023 NM = C9E9G52 = unid temp capture
1 79961U 23999ZZL 23010.99919926 -01E3OOSR +013TPZ64 +00GQQNNHH 20208
2 79961                          +0002F3M6 -0004DP0U -0002W9NX     02

# Worst residual: 1.94 km
# MJD 59956.000000 (2023 Jan 12  0:00)
2023 NM = C9E9G52 = unid temp capture
1 79961U 23999ZZL 23011.99919926 -01DIQWAK +012SEQNV +00G1Y1T5H 20202
2 79961                          +0002FDZ8 -000498AR -0002UCHF     09

# Worst residual: 2.08 km
# MJD 59957.000000 (2023 Jan 13  0:00)
2023 NM = C9E9G52 = unid temp capture
1 79961U 23999ZZL 23012.99919926 -01CXQV2M +011S62T1 +00FDM4ICH 20200
2 79961                          +0002FM72 -00044RJC -0002SEMA     07

# Worst residual: 2.21 km
# MJD 59958.000000 (2023 Jan 14  0:00)
2023 NM = C9E9G52 = unid temp capture
1 79961U 23999ZZL 23013.99919926 -01CCP695 +010T00XC +00EPR2GCH 20207
2 79961                          +0002FRNK -00040AIO -0002QFW6     00

# Worst residual: 2.23 km
# MJD 59959.000000 (2023 Jan 15  0:00)
2023 NM = C9E9G52 = unid temp capture
1 79961U 23999ZZL 23014.99919926 -01BRMKQ6 +00ZUWNW2 +00E2D3PIH 20208
2 79961                          +0002FTMN -0003VT3Z -0002OG62     04

# Worst residual: 2.07 km
# MJD 59960.000000 (2023 Jan 16  0:00)
2023 NM = C9E9G52 = unid temp capture
1 79961U 23999ZZL 23015.99919926 -01B6K06K +00YXW37N +00DFGHB3H 20201
2 79961                          +0002FR9K -0003RBAY -0002MFD3     05

# Worst residual: 2.07 km
# MJD 59961.000000 (2023 Jan 17  0:00)
2023 NM = C9E9G52 = unid temp capture
1 79961U 23999ZZL 23016.99919926 -01ALIM9A +00Y1YDPJ +00CT1GMMH 20208
2 79961                          +0002FJKX -0003MTA4 -0002KDHJ     07

# Worst residual: 2.00 km
# MJD 59962.000000 (2023 Jan 18  0:00)
2023 NM = C9E9G52 = unid temp capture
1 79961U 23999ZZL 23017.99919926 -01A0JTJY +00X73JIA +00C74AF0H 20209
2 79961                          +0002F5HU -0003IBHZ -0002IAON     08

# Worst residual: 1.74 km
# MJD 59963.000000 (2023 Jan 19  0:00)
2023 NM = C9E9G52 = unid temp capture
1 79961U 23999ZZL 23018.99919926 -019FPA2R +00WDBF98 +00BLP5DJH 20202
2 79961                          +0002EJXO -0003DUS7 -0002G7AI     07

# Worst residual: 1.43 km
# MJD 59964.000000 (2023 Jan 20  0:00)
2023 NM = C9E9G52 = unid temp capture
1 79961U 23999ZZL 23019.99919926 -018V0WF7 +00VKLMP3 +00B0S4C3H 20205
2 79961                          +0002DQ0T -00039GDC -0002E3VG     05

# Worst residual: 1.24 km
# MJD 59965.000000 (2023 Jan 21  0:00)
2023 NM = C9E9G52 = unid temp capture
1 79961U 23999ZZL 23020.99919926 -018AKR2M +00USXF75 +00AGD4A7H 20205
2 79961                          +0002CNBD -000355VA -0002C17K     01

# Worst residual: 1.38 km
# MJD 59966.000000 (2023 Jan 22  0:00)
2023 NM = C9E9G52 = unid temp capture
1 79961U 23999ZZL 23021.99919926 -017QEXLL +00U29NA5 +009WFUS5H 20200
2 79961                          +0002BC16 -0003112E -0002A07X     01

# Worst residual: 1.47 km
# MJD 59967.000000 (2023 Jan 23  0:00)
2023 NM = C9E9G52 = unid temp capture
1 79961U 23999ZZL 23022.99919926 -0176LEG5 +00TCKQ9V +009CZTDZH 20200
2 79961                          +00029T51 -0002X3MY -000281T5     04

# Worst residual: 1.61 km
# MJD 59968.000000 (2023 Jan 24  0:00)
2023 NM = C9E9G52 = unid temp capture
1 79961U 23999ZZL 23023.99919926 -016N5STU +00SNSQMQ +008U0AH1H 20205
2 79961                          +0002848J -0002TEUC -000266PL     04

# Worst residual: 1.56 km
# MJD 59969.000000 (2023 Jan 25  0:00)
2023 NM = C9E9G52 = unid temp capture
1 79961U 23999ZZL 23024.99919926 -01645CEM +00RZVIFU +008BGF9VH 20208
2 79961                          +00026B9L -0002PZCD -00024FD9     00

